OBJECT_NAME,OBJECT_ID,EPOCH,MEAN_MOTION,ECCENTRICITY,INCLINATION,RA_OF_ASC_NODE,ARG_OF_PERICENTER,MEAN_ANOMALY,EPHEMERIS_TYPE,CLASSIFICATION_TYPE,NORAD_CAT_ID,ELEMENT_SET_NO,REV_AT_EPOCH,BSTAR,MEAN_MOTION_DOT,MEAN_MOTION_DDOT
INTELSAT 21 (IS-21),2012-045A,2026-06-05T06:23:50.798688,1.00273605,.00021269,0.0398,82.5603,357.7072,211.4023,0,U,38749,999,5040,0,-.273E-5,0
INTELSAT 23 (IS-23),2012-057A,2026-06-05T05:55:08.787936,1.00268001,.00002759,0.0116,307.9774,189.6525,151.8250,0,U,38867,999,4983,0,-.272E-5,0
FM-6,2013-058A,2026-06-04T14:47:01.290624,1.00251470,.00021209,0.0096,36.6997,147.5696,174.2528,0,U,39360,999,4594,0,-.1E-7,0
INTELSAT 30 (IS-30),2014-062A,2026-06-04T21:39:57.149856,1.00268318,.00011135,0.0264,48.5331,350.9711,83.7621,0,U,40271,999,667,0,-.138E-5,0
DIRECTV 14,2014-078B,2026-06-04T21:38:42.269568,1.00272349,.00002556,0.0095,324.1263,199.1564,315.5074,0,U,40333,999,4192,0,-.113E-5,0
DIRECTV 15,2015-026A,2026-06-04T23:20:23.925696,1.00272632,.00001275,0.0173,7.9959,267.6092,225.0151,0,U,40663,999,4034,0,-.9E-6,0
SKY MEXICO-1,2015-026B,2026-06-05T04:35:12.285024,1.00272813,.00023112,0.0161,8.7312,81.2136,153.6857,0,U,40664,999,4033,0,-.222E-5,0
INTELSAT 34 (IS-34),2015-039A,2026-06-04T21:51:11.073312,1.00269697,.00002757,0.0092,325.9423,62.8751,136.8315,0,U,40874,999,3951,0,-.273E-5,0
INTELSAT 31 (IS-31),2016-035A,2026-06-05T06:13:18.215040,1.00272216,.00008335,0.0139,265.1975,321.1501,25.6319,0,U,41581,999,3656,0,-.139E-5,0
INTELSAT 36 (IS-36),2016-053A,2026-06-04T19:57:21.472992,1.00270778,.0001599,0.0136,12.5282,330.5945,277.9825,0,U,41747,999,3583,0,-.12E-6,0
INTELSAT 32E (IS-32E),2017-007B,2026-06-04T11:38:44.577024,1.00272952,.00004549,0.0180,347.8046,15.9771,20.6539,0,U,41945,999,3409,0,-.257E-5,0
INTELSAT 35E (IS-35E),2017-041A,2026-06-05T07:09:47.062368,1.00273864,.00019775,0.0155,13.9478,59.2508,253.4925,0,U,42818,999,3269,0,-.225E-5,0
INTELSAT 37E (IS-37E),2017-059A,2026-06-05T06:35:12.211296,1.00271958,.0002615,0.0158,10.7816,79.6185,244.1250,0,U,42950,999,3194,0,-.128E-5,0
AZERSPACE 2 (IS-38),2018-074A,2026-06-04T12:03:57.159360,1.00272076,.00016543,0.0013,357.4289,67.8132,53.8049,0,U,43632,999,2832,0,.148E-5,0
HORIZONS-3E,2018-074B,2026-06-04T14:46:38.428320,1.00270803,.00007507,0.0181,149.5538,123.5060,10.6575,0,U,43633,999,2821,0,-.19E-6,0
AT&T T-16,2019-034A,2026-06-04T23:20:53.877984,1.00272225,.00003735,0.0247,65.3119,219.6139,217.8574,0,U,44333,999,2551,0,-.103E-5,0
INTELSAT 39 (IS-39),2019-049B,2026-06-04T15:25:19.326720,1.00271423,.00005827,0.0188,328.9935,359.4045,217.9725,0,U,44476,999,2500,0,.45E-6,0
GALAXY 30 (G-30),2020-056C,2026-06-05T06:04:41.541312,1.00272482,.0002402,0.0188,330.4888,100.7485,148.6097,0,U,46114,999,2117,0,.49E-6,0
GALAXY 33 (G-33),2022-128A,2026-06-05T06:34:55.713216,1.00271854,.00019909,0.0176,38.5509,35.7610,145.1426,0,U,54026,999,1362,0,.91E-6,0
GALAXY 34 (G-34),2022-128B,2026-06-04T23:12:54.643968,1.00273793,.00019706,0.0137,6.5753,86.4583,19.6129,0,U,54027,999,1379,0,.71E-6,0
GALAXY 31 (G-31),2022-153A,2026-06-05T06:05:48.933312,1.00272137,.00014662,0.0150,62.4856,12.3444,149.3142,0,U,54243,999,701,0,.25E-6,0
GALAXY 32 (G-32),2022-153B,2026-06-03T20:00:59.416128,1.00270822,.00023838,0.0097,353.7552,46.7034,61.0732,0,U,54244,999,1301,0,-.162E-5,0
GALAXY 35 (G-35),2022-170A,2026-06-05T06:13:48.167328,1.00272351,.00022483,0.0138,8.5361,69.0413,176.4738,0,U,54741,999,1277,0,-.15E-5,0
GALAXY 36 (G-36),2022-170B,2026-06-05T01:03:34.592832,1.00272495,.0002876,0.0166,245.1596,195.6515,99.5737,0,U,54742,999,1265,0,-.173E-5,0
GALAXY 37 (G-37),2023-112A,2026-06-04T23:13:32.083680,1.00273223,.00022328,0.0166,319.4800,117.5390,37.7833,0,U,57493,999,1042,0,.6E-6,0
